STARLINK-30975          
1 58446U 23183K   26068.26863387  .00000381  00000+0  23887-4 0  9992
2 58446  43.0011  43.6658 0001642 270.5537  89.5126 15.26744851126690
KUIPER-00204            
1 67145U 25301N   26068.39760395  .00020516  00000+0  79568-3 0  9999
2 67145  51.8870  71.6415 0003071 354.8934   5.2016 15.26088400 13737
